{
    "CCSDS_OMM_VERS": "3.0",
    "COMMENT": "GENERATED VIA SPACE-TRACK.ORG API",
    "CREATION_DATE": "2025-05-22T17:14:14",
    "ORIGINATOR": "18 SPCS",
    "OBJECT_NAME": "BEIDOU 3 IGSO-2",
    "OBJECT_ID": "2019-035A",
    "CENTER_NAME": "EARTH",
    "REF_FRAME": "TEME",
    "TIME_SYSTEM": "UTC",
    "MEAN_ELEMENT_THEORY": "SGP4",
    "EPOCH": "2025-05-22T15:13:34.284576",
    "MEAN_MOTION": "1.00278709",
    "ECCENTRICITY": "0.00360030",
    "INCLINATION": "55.2059",
    "RA_OF_ASC_NODE": "162.2916",
    "ARG_OF_PERICENTER": "210.3117",
    "MEAN_ANOMALY": "216.1527",
    "EPHEMERIS_TYPE": "0",
    "CLASSIFICATION_TYPE": "U",
    "NORAD_CAT_ID": "44337",
    "ELEMENT_SET_NO": "999",
    "REV_AT_EPOCH": "2175",
    "BSTAR": "0.00000000000000",
    "MEAN_MOTION_DOT": "-0.00000046",
    "MEAN_MOTION_DDOT": "0.0000000000000",
    "SEMIMAJOR_AXIS": "42162.791",
    "PERIOD": "1435.998",
    "APOAPSIS": "35936.455",
    "PERIAPSIS": "35632.857",
    "OBJECT_TYPE": "PAYLOAD",
    "RCS_SIZE": "LARGE",
    "COUNTRY_CODE": "PRC",
    "LAUNCH_DATE": "2019-06-24",
    "SITE": "XSC",
    "DECAY_DATE": null,
    "FILE": "4736220",
    "GP_ID": "288145211",
    "TLE_LINE0": "0 BEIDOU 3 IGSO-2",
    "TLE_LINE1": "1 44337U 19035A   25142.63442459 -.00000046  00000-0  00000-0 0  9991",
    "TLE_LINE2": "2 44337  55.2059 162.2916 0036003 210.3117 216.1527  1.00278709 21756"
}